#dP2021  8 14  0  0  0.00000000      96 __u+U ITR00 FIT  IAC
## 2170 518400.00000000   900.00000000 59440 0.0000000000000
+  116   C06C07C08C09C10C11C12C13C14C16C19C20C21C22C23C24C25
+        C26C27C28C29C30C32C33C34C35C36C37C38C39C40C41C42C43
+        C44C45C46E01E02E03E04E05E07E08E09E11E12E13E14E15E18
+        E19E21E24E25E26E27E30E31E33E36G01G02G03G04G05G06G07
+        G08G09G10G12G13G14G15G16G17G18G19G20G21G22G23G24G25
+        G26G27G28G29G30G31G32J01J02J03R01R02R03R04R05R07R08
+        R09R11R12R13R14R15R16R17R18R19R20R21R22R24  0  0  0
++         8  0  6  7  6  8  7  7  7  7  6  6  7  7  8  7  7
++         7  6  7  7  6  7  8  6  7  5  7  8  8  0  6  9  8
++         8  8  7  6  6  6  6  6  5  7  6  6  7  6  7  5  5
++         7  7  6  6  6  6  6  6  6  7  5  5  5  5  6  5  7
++         8  5  5  6  7  6  6  6  5  5  4  6  6  5  6  6  6
++         6  7  6  5  6  4  6  9  8  9  7  7  7  7  7  6  5
++         6  6  6  5  7  6  8  7  6  6  6  8  7  6  0  0  0
%c M  cc GPS ccc cccc cccc cccc cccc ccccc ccccc ccccc ccccc
%c cc cc ccc ccc cccc cccc cccc cccc ccccc ccccc ccccc ccccc
%f  0.0000000  0.000000000  0.00000000000  0.000000000000000
%f  0.0000000  0.000000000  0.00000000000  0.000000000000000
%i    0    0    0    0      0      0      0      0         0
%i    0    0    0    0      0      0      0      0         0
/* INFORMATION & ANALYSIS CENTER (IAC)      ULTRA-RAPID DATA
/* S/V CLOCKS ARE ALIGNED TO GNSS TIME                      
/* G:C1WC2W R:C1PC2P E:C1XC5X C:C2IC6I J:C1CC2S             
/* PCV:IGS14_2163 OL/AL:FES2004  NONE     YN ORB:CoN CLK:CoN
*  2021 08 14  7 45  0.00000000
PC06  -9931.049376  40896.959090   3799.791748    755.810034
PC07 -11237.373243  24228.384599 -32273.087328 999999.999999
PC08 -24603.818526  24633.419342  23606.064547   -920.969775
PC09  -5071.676485  41690.711808  -5564.728542    -25.809741
PC10   2902.680069  30204.726753 -28850.886889     -8.838201
PC11 -13896.482862  20579.336029 -12626.793055    515.849784
PC12 -15974.594127   2343.110720 -22727.377666    782.908418
PC13  -9406.409782  25983.418776  31859.672786    372.903395
PC14 -12500.091720  10034.601387  22864.925340    722.121074
PC16 -11526.956455  40095.878831   7020.525728   -861.880568
PC19   3345.490382 -17267.898068 -21648.816195    946.293206
PC20  18141.829705  -2897.046545 -20985.615030   -820.335986
PC21 -22864.818556 -14061.876059   7689.078967   -940.739800
PC22 -13864.018846 -22172.586016  -9788.415134   -950.674496
PC23   6200.269076  15086.052048 -22628.657208   -961.944035
PC24 -26564.317046   8473.504382   -795.207974   -964.341171
PC25 -13439.853486  17325.737234 -17249.720414   -870.599363
PC26 -23503.070446  -3388.230244  14628.970438    864.647752
PC27  13971.891637   8465.582384  22603.463090    580.618403
PC28   3264.997044  24398.496439  13134.025496    -38.740847
PC29   8352.348758 -26319.540893   4037.385580    433.097953
PC30  16110.074347 -12389.844091  19107.916177    477.372440
PC32  22945.545862  13915.690013  -7622.184971   -931.260250
PC33  -3398.209744  17234.748625  21679.628617   -957.083844
PC34 -16052.987488  13192.346426 -18649.017495   -605.447203
PC35  -3901.651193 -24477.022396 -12804.016907   -140.475718
PC36  14218.960765 -16959.828105  17030.579168   -743.390747
PC37  22891.040409   4556.586778 -15283.890952   -861.637880
PC38 -21981.979209  26748.677800  23962.189593    168.467378
PC39 -12528.639763  38252.354694  12793.575328     32.736139
PC40      0.000000      0.000000      0.000000 999999.999999
PC41  13607.598536  22175.557504  10137.771356   -960.749432
PC42 -18702.323508   2177.687052  20641.558621   -932.841303
PC43  -8841.922569  26079.568793  -4585.443305   -867.099343
PC44 -14333.714070  -8197.466029 -22505.128783    340.136629
PC45  -6361.284267 -14916.103613  22722.906751    520.142596
PC46  26288.681406  -9226.195398   1901.421020    132.912366
PE01  18252.523616 -10652.995701  20733.731913  -1171.302182
PE02 -18117.893037  10722.705925 -20795.928863    239.790792
PE03  -9478.963635  18386.684146  21164.679302   -463.510352
PE04  -4607.926057 -28405.771512  -6937.211848   -834.644011
PE05 -18222.014402  -2587.965175  23186.147337   -257.389886
PE07  16243.521716  21806.819921 -11674.248592   -573.580227
PE08   5023.438760  28396.211537   6643.555002   5954.374086
PE09 -16353.941218 -21633.979479  11887.328986   5566.698475
PE11 -11751.865598 -11160.635125 -24783.592346   5580.051790
PE12   6052.089273 -23746.679495 -16602.756449   5061.228609
PE13  11352.534074  11483.382150  24804.748649    420.253606
PE14  12057.344570 -14598.645461  16270.707951  -1534.936091
PE15  -6010.646249  23730.413938  16637.672814    798.046022
PE18 -19178.481623   7410.801608 -23880.436672  -1683.399224
PE19  10827.619534 -16251.062273 -22239.947941    351.805174
PE21  28909.040372   1375.033636   6212.084499   -681.908051
PE24 -22581.731989 -13737.907931  13301.700034  -1061.909330
PE25 -28946.566306  -1542.047096  -5980.131059   -543.202268
PE26  22321.054352  -8186.347613  17636.251702   1463.521152
PE27  23350.052874  13192.306202 -12520.710474    -97.552972
PE30   2750.212782  17151.167479 -23968.873538   2703.292978
PE31  -4092.171353 -17176.286675  23772.109301   -484.394671
PE33  19790.840545 -21972.706124   1304.083642   -466.303641
PE36 -21985.760297   7478.069851 -18357.707991   -248.169822
PG01  10149.781993 -20051.830257 -14152.539164    598.124900
PG02 -21523.220287  13603.330209  -7026.856273   -626.204287
PG03   2679.506568 -15004.683405 -21860.239239   -253.645893
PG04   1341.147214 -25692.206319  -6460.908518   -203.865254
PG05 -15481.148883   9176.949970  19423.565934    -51.071047
PG06 -20354.514246   1989.904864 -16919.778802     55.788780
PG07  -4931.536997 -15498.193286  21287.218975    224.600728
PG08   7698.000767 -19607.644758  15974.008219    -32.576750
PG09  -7666.947633 -25007.703455   4481.312773   -358.745679
PG10  23587.856970  11911.076504   4020.400890   -182.166154
PG12  -3890.475534  14739.010188 -22009.591998    -82.680651
PG13 -12998.001232  12414.266807  19366.293527    171.121309
PG14 -23176.932502 -12596.752849   3315.216714     24.185427
PG15  -5738.530422  20724.863511  14983.690498   -128.496676
PG16  20489.239138  -2627.291053  16704.220104   -373.451157
PG17 -12415.543435 -16708.771750 -16063.131554    489.114201
PG18   6492.934518  13839.649670  21698.664004    332.908867
PG19 -14607.444100  -7522.903391 -21178.831048     39.410143
PG20 -23756.939278   3097.694783  11145.806834    519.661850
PG21  15887.378426 -20075.784981  -5233.436973    137.119898
PG22  10449.524928 -12854.234313 -20548.399064   -538.685802
PG23  15998.382061  15935.492724  14012.781271     71.045296
PG24 -12642.130308  21289.302616  -9299.257096    207.748704
PG25   8392.107936  17235.806298 -18756.976986    190.863022
PG26  25629.596812   3375.330983   6641.372293    122.436998
PG27  12816.203359  -9618.467605  20929.091248   -178.048281
PG28 -24222.275237 -10254.408905  -2276.965841    520.147973
PG29   4031.879925  26070.623470   2721.680255   -395.966789
PG30 -15853.774570  -6681.601033  20359.114218   -462.018436
PG31  21796.774848  -3187.826111 -15255.104849   -134.182287
PG32  14826.513790  13020.133673 -17746.064161      7.809439
PJ01 -24767.055266  23246.052347  30008.406768   -439.283800
PJ02 -32372.311169  14791.392169 -18070.985910     -1.544708
PJ03 -22685.540231  32011.889857 -10696.395296     -0.808969
PR01 -17453.048371 -10691.852395  15232.129075     83.820802
PR02  -7658.668743   7938.624995  23041.390615    489.614312
PR03   5513.311760  19746.456829  15253.797901     41.199685
PR04  15390.804588  20323.717687   -952.749734    100.081393
PR05  16697.132752   9731.666338 -16652.480691     77.112546
PR07  -5988.827281 -19948.323313 -14659.319884    -41.664305
PR08 -15487.339409 -20224.842723   1143.161068    -60.376797
PR09  20295.626228  -8837.328834  12629.595718      7.989279
PR11 -14292.799884  -7583.667271  19740.686177     46.387424
PR12 -25031.067121    553.283911   4872.121618    253.512730
PR13 -20903.609912   8411.243265 -11968.846706    -59.155953
PR14  -3898.469522  11394.644037 -22469.462816     67.628056
PR15  14748.792222   7646.287731 -19327.594194    102.082671
PR16  25253.654828  -1729.129020  -3669.068592    -19.565226
PR17  -7129.208128  23538.916552   6677.267643    449.654389
PR18   2844.992813  15558.715365  20035.766538     86.884497
PR19  11080.149314    487.628011  22965.509205   -155.353271
PR20  14238.498978 -17794.600694  11425.048340    -54.119463
PR21   6568.899833 -23358.615235  -7930.747125   -231.401910
PR22  -3403.498312 -14643.323036 -20599.898359   -127.785495
PR24 -14014.972962  18434.648966 -10661.306006     54.442401
EOF
